NORAD_CAT_ID,OBJECT_NAME,OBJECT_TYPE,EPOCH,MEAN_MOTION,ECCENTRICITY,INCLINATION,RA_OF_ASC_NODE,ARG_OF_PERICENTER,MEAN_ANOMALY,BSTAR,MEAN_MOTION_DOT,MEAN_MOTION_DDOT,TLE_LINE0,TLE_LINE1,TLE_LINE2,SEMIMAJOR_AXIS,PERIOD,APOGEE,PERIGEE,DECAYED
55791.0,STARLINK-5807,PAYLOAD,2023-06-10 13:47:40,15.69937247,0.0003804,69.9967,237.3547,271.9022,88.1738,2.8123e-07,-1.79e-06,0.0,0 STARLINK-5807,1 55791U 23028BC  23161.57477741 -.00000179  00000-0  28123-6 0  9997,2 55791  69.9967 237.3547 0003804 271.9022  88.1738 15.69937247 16188,6737.214,91.723,361.641,356.516,0.0
55791.0,STARLINK-5807,PAYLOAD,2023-06-10 15:19:25,15.6992381,0.0003434,69.9973,237.1788,266.329,93.7513,2.2331e-05,2.473e-05,0.0,0 STARLINK-5807,1 55791U 23028BC  23161.63849328  .00002473  00000-0  22331-4 0  9999,2 55791  69.9973 237.1788 0003434 266.3290  93.7513 15.69923810 16188,6737.252,91.724,361.431,356.803,0.0
55791.0,STARLINK-5807,PAYLOAD,2023-06-11 11:12:13,15.69919405,0.0003414,69.9974,234.8489,268.0677,92.0128,7.3158e-06,6.67e-06,0.0,0 STARLINK-5807,1 55791U 23028BC  23162.46681943  .00000667  00000-0  73158-5 0  9995,2 55791  69.9974 234.8489 0003414 268.0677  92.0128 15.69919405 16322,6737.265,91.724,361.43,356.829,0.0
55791.0,STARLINK-5807,PAYLOAD,2023-06-11 21:54:28,15.69931415,0.0003559,69.9975,233.5963,266.2477,93.8311,-1.0612e-05,-1.489e-05,0.0,0 STARLINK-5807,1 55791U 23028BC  23162.91283217 -.00001489  00000-0 -10612-4 0  9997,2 55791  69.9975 233.5963 0003559 266.2477  93.8311 15.69931415 16399,6737.23,91.724,361.493,356.697,0.0
55791.0,STARLINK-5807,PAYLOAD,2023-06-12 04:01:29,15.69926692,0.0003323,69.9975,232.8803,266.2941,93.7875,-7.6656e-06,-1.134e-05,0.0,0 STARLINK-5807,1 55791U 23028BC  23163.16770331 -.00001134  00000-0 -76656-5 0  9991,2 55791  69.9975 232.8803 0003323 266.2941  93.7875 15.69926692 16439,6737.244,91.724,361.348,356.87,0.0
55791.0,STARLINK-5807,PAYLOAD,2023-06-12 07:04:59,15.69921994,0.0003352,69.9981,232.5217,265.8109,94.2703,-4.9512e-06,-8.08e-06,0.0,0 STARLINK-5807,1 55791U 23028BC  23163.29513876 -.00000808  00000-0 -49512-5 0  9992,2 55791  69.9981 232.5217 0003352 265.8109  94.2703 15.69921994 16453,6737.257,91.724,361.381,356.864,0.0
55791.0,STARLINK-5807,PAYLOAD,2023-06-13 04:29:31,15.69929442,0.0003377,69.9978,230.0136,266.8325,93.2484,5.3836e-07,-1.48e-06,0.0,0 STARLINK-5807,1 55791U 23028BC  23164.18716804 -.00000148  00000-0  53836-6 0  9998,2 55791  69.9978 230.0136 0003377 266.8325  93.2484 15.69929442 16585,6737.236,91.724,361.376,356.826,0.0
55791.0,STARLINK-5807,PAYLOAD,2023-06-13 21:18:47,15.69923846,0.0003619,69.9969,228.0416,270.152,89.9261,9.366e-06,9.13e-06,0.0,0 STARLINK-5807,1 55791U 23028BC  23164.88805206  .00000913  00000-0  93660-5 0  9997,2 55791  69.9969 228.0416 0003619 270.1520  89.9261 15.69923846 16708,6737.252,91.724,361.555,356.679,0.0
55791.0,STARLINK-5807,PAYLOAD,2023-06-13 22:50:32,15.69923088,0.0003511,69.9972,227.8636,267.9899,92.0895,4.2835e-06,3.02e-06,0.0,0 STARLINK-5807,1 55791U 23028BC  23164.95177046  .00000302  00000-0  42835-5 0  9999,2 55791  69.9972 227.8636 0003511 267.9899  92.0895 15.69923088 16703,6737.254,91.724,361.484,356.754,0.0
55791.0,STARLINK-5807,PAYLOAD,2023-06-14 14:08:04,15.69919138,0.0003675,69.9969,226.0711,272.0243,88.0532,1.1899e-06,-7e-07,0.0,0 STARLINK-5807,1 55791U 23028BC  23165.58894219 -.00000070  00000-0  11899-5 0  9996,2 55791  69.9969 226.0711 0003675 272.0243  88.0532 15.69919138 16811,6737.265,91.724,361.606,356.654,0.0
55791.0,STARLINK-5807,PAYLOAD,2023-06-14 23:18:34,15.69923805,0.0003623,69.9966,224.9962,267.2309,92.8472,1.0073e-05,9.98e-06,0.0,0 STARLINK-5807,1 55791U 23028BC  23165.97123754  .00000998  00000-0  10073-4 0  9998,2 55791  69.9966 224.9962 0003623 267.2309  92.8472 15.69923805 16862,6737.252,91.724,361.558,356.676,0.0
55791.0,STARLINK-5807,PAYLOAD,2023-06-15 13:04:21,15.69923331,0.0002984,69.9984,223.3868,248.9307,111.1569,1.6661e-06,-1.2e-07,0.0,0 STARLINK-5807,1 55791U 23028BC  23166.54468987 -.00000012  00000-0  16661-5 0  9990,2 55791  69.9984 223.3868 0002984 248.9307 111.1569 15.69923331 16960,6737.253,91.724,361.129,357.108,0.0
55791.0,STARLINK-5807,PAYLOAD,2023-06-15 14:36:06,15.69935498,0.0002922,69.9976,223.2074,259.8716,100.2151,-1.8577e-05,-2.447e-05,0.0,0 STARLINK-5807,1 55791U 23028BC  23166.60840394 -.00002447  00000-0 -18577-4 0  9995,2 55791  69.9976 223.2074 0002922 259.8716 100.2151 15.69935498 16970,6737.219,91.724,361.052,357.115,0.0
55791.0,STARLINK-5807,PAYLOAD,2023-06-16 02:50:07,15.69915554,0.000367,69.9962,221.7706,276.8228,83.255,7.4224e-06,6.79e-06,0.0,0 STARLINK-5807,1 55791U 23028BC  23167.11814389  .00000679  00000-0  74224-5 0  9992,2 55791  69.9962 221.7706 0003670 276.8228  83.2550 15.69915554 17041,6737.276,91.725,361.613,356.668,0.0
55791.0,STARLINK-5807,PAYLOAD,2023-06-16 10:28:52,15.69927018,0.0003466,69.9979,220.8786,268.0675,92.0124,1.948e-05,2.13e-05,0.0,0 STARLINK-5807,1 55791U 23028BC  23167.43671784  .00002130  00000-0  19480-4 0  9993,2 55791  69.9979 220.8786 0003466 268.0675  92.0124 15.69927018 17097,6737.243,91.724,361.443,356.773,0.0
55791.0,STARLINK-5807,PAYLOAD,2023-06-16 12:00:37,15.6993308,0.0003348,69.9976,220.6987,268.1514,91.9298,1.4012e-05,1.473e-05,0.0,0 STARLINK-5807,1 55791U 23028BC  23167.50043175  .00001473  00000-0  14012-4 0  9993,2 55791  69.9976 220.6987 0003348 268.1514  91.9298 15.69933080 17116,6737.225,91.724,361.346,356.835,0.0
55791.0,STARLINK-5807,PAYLOAD,2023-06-16 13:32:22,15.69927847,0.0003413,69.996,220.5173,270.2816,89.7989,1.0286e-05,1.024e-05,0.0,0 STARLINK-5807,1 55791U 23028BC  23167.56415197  .00001024  00000-0  10286-4 0  9997,2 55791  69.9960 220.5173 0003413 270.2816  89.7989 15.69927847 17124,6737.24,91.724,361.405,356.806,0.0
55791.0,STARLINK-5807,PAYLOAD,2023-06-16 21:11:09,15.69915551,0.0003417,69.9977,219.6232,278.46,81.6208,-3.7994e-06,-6.69e-06,0.0,0 STARLINK-5807,1 55791U 23028BC  23167.88274762 -.00000669  00000-0 -37994-5 0  9995,2 55791  69.9977 219.6232 0003417 278.4600  81.6208 15.69915551 17160,6737.276,91.725,361.443,356.838,0.0
55791.0,STARLINK-5807,PAYLOAD,2023-06-17 09:25:11,15.69903267,0.0003223,69.9982,218.191,257.7004,102.3831,-1.0272e-05,-1.446e-05,0.0,0 STARLINK-5807,1 55791U 23028BC  23168.39249332 -.00001446  00000-0 -10272-4 0  9990,2 55791  69.9982 218.1910 0003223 257.7004 102.3831 15.69903267 17249,6737.311,91.725,361.347,357.004,0.0
55791.0,STARLINK-5807,PAYLOAD,2023-06-17 12:28:41,15.69914939,0.0003384,69.9977,217.832,269.9458,90.135,-6.3821e-06,-9.8e-06,0.0,0 STARLINK-5807,1 55791U 23028BC  23168.51992002 -.00000980  00000-0 -63821-5 0  9994,2 55791  69.9977 217.8320 0003384 269.9458  90.1350 15.69914939 17260,6737.277,91.725,361.422,356.862,0.0
55791.0,STARLINK-5807,PAYLOAD,2023-06-18 09:53:10,15.69936859,0.0003184,69.9985,215.3232,262.8641,97.2193,2.1866e-05,2.419e-05,0.0,0 STARLINK-5807,1 55791U 23028BC  23169.41193220  .00002419  00000-0  21866-4 0  9998,2 55791  69.9985 215.3232 0003184 262.8641  97.2193 15.69936859 17402,6737.215,91.723,361.225,356.935,0.0
55791.0,STARLINK-5807,PAYLOAD,2023-06-18 22:00:00,15.69880998,0.0003516,69.9992,213.9047,263.888,67.9651,0.00056127,0.00067702,0.0,0 STARLINK-5807,1 55791U 23028BC  23169.91667824  .00067702  00000-0  56127-3 0  9992,2 55791  69.9992 213.9047 0003516 263.8880  67.9651 15.69880998  1300,6737.374,91.727,361.608,356.871,0.0
55791.0,STARLINK-5807,PAYLOAD,2023-06-18 23:38:58,15.69917201,0.0003601,69.9969,213.7114,265.4862,94.5922,7.9957e-06,7.48e-06,0.0,0 STARLINK-5807,1 55791U 23028BC  23169.98539690  .00000748  00000-0  79957-5 0  9993,2 55791  69.9969 213.7114 0003601 265.4862  94.5922 15.69917201 17492,6737.271,91.725,361.562,356.71,0.0
55791.0,STARLINK-5807,PAYLOAD,2023-06-19 02:42:28,15.6990873,0.000347,69.9979,213.3537,266.4937,93.5862,2.1187e-05,2.334e-05,0.0,0 STARLINK-5807,1 55791U 23028BC  23170.11283343  .00002334  00000-0  21187-4 0  9995,2 55791  69.9979 213.3537 0003470 266.4937  93.5862 15.69908730 17529,6737.295,91.725,361.498,356.822,0.0
55791.0,STARLINK-5807,PAYLOAD,2023-06-19 05:45:59,15.69910806,0.0003462,69.9978,212.9955,266.7742,93.3058,2.2318e-05,2.47e-05,0.0,0 STARLINK-5807,1 55791U 23028BC  23170.24026651  .00002470  00000-0  22318-4 0  9994,2 55791  69.9978 212.9955 0003462 266.7742  93.3058 15.69910806 17549,6737.289,91.725,361.487,356.822,0.0
55791.0,STARLINK-5807,PAYLOAD,2023-06-19 22:35:14,15.69930869,0.0003417,69.9979,211.0256,263.5084,96.5722,-1.4511e-06,-3.87e-06,0.0,0 STARLINK-5807,1 55791U 23028BC  23170.94114397 -.00000387  00000-0 -14511-5 0  9990,2 55791  69.9979 211.0256 0003417 263.5084  96.5722 15.69930869 17643,6737.232,91.724,361.399,356.795,0.0
55791.0,STARLINK-5807,PAYLOAD,2023-06-20 09:17:31,15.69923609,0.0003351,69.9979,209.7714,263.5839,96.4975,-9.7878e-06,-1.389e-05,0.0,0 STARLINK-5807,1 55791U 23028BC  23171.38716650 -.00001389  00000-0 -97878-5 0  9999,2 55791  69.9979 209.7714 0003351 263.5839  96.4975 15.69923609 17712,6737.253,91.724,361.375,356.86,0.0
55791.0,STARLINK-5807,PAYLOAD,2023-06-20 12:21:01,15.69923529,0.0002983,69.9985,209.4129,258.006,102.0801,-3.2416e-06,-6.02e-06,0.0,0 STARLINK-5807,1 55791U 23028BC  23171.51459876 -.00000602  00000-0 -32416-5 0  9992,2 55791  69.9985 209.4129 0002983 258.0060 102.0801 15.69923529 17747,6737.253,91.724,361.128,357.108,0.0
55791.0,STARLINK-5807,PAYLOAD,2023-06-21 11:17:17,15.69924665,0.0003231,69.9986,206.7272,263.1958,96.887,7.7959e-06,7.25e-06,0.0,0 STARLINK-5807,1 55791U 23028BC  23172.47034645  .00000725  00000-0  77959-5 0  9996,2 55791  69.9986 206.7272 0003231 263.1958  96.8870 15.69924665 17880,6737.25,91.724,361.291,356.938,0.0
55791.0,STARLINK-5807,PAYLOAD,2023-06-22 10:13:35,15.69919678,0.0003166,69.9988,204.0405,260.9811,99.1027,6.7032e-06,5.93e-06,0.0,0 STARLINK-5807,1 55791U 23028BC  23173.42610155  .00000593  00000-0  67032-5 0  9992,2 55791  69.9988 204.0405 0003166 260.9811  99.1027 15.69919678 18037,6737.264,91.724,361.262,356.996,0.0
